{
  "type": "FeatureCollection",
  "features": [
    {
      "type": "Feature",
      "properties": {
        "norad_id": 32174,
        "name": "FENGYUN 1C DEB",
        "group": "fengyun-1c-debris",
        "lat": 45.184815764373084,
        "lon": 45.78110374013596,
        "alt_km": 936.8559935473959,
        "timestamp": "2025-12-18T13:51:49.969606+00:00",
        "meta_object_name": "FENGYUN 1C DEB",
        "meta_object_id": "1999-025CTU",
        "meta_epoch": "2025-12-14T21:34:34.410432",
        "meta_mean_motion": 14.17923145,
        "meta_eccentricity": 0.01505704,
        "meta_inclination": 98.6008,
        "meta_ra_of_asc_node": 50.9784,
        "meta_arg_of_pericenter": 239.665,
        "meta_mean_anomaly": 118.9562,
        "meta_ephemeris_type": 0,
        "meta_classification_type": "U",
        "meta_norad_cat_id": 32174,
        "meta_element_set_no": 999,
        "meta_rev_at_epoch": 64136,
        "meta_bstar": 0.00031806491,
        "meta_mean_motion_dot": 6.84e-06,
        "meta_mean_motion_ddot": 0,
        "tle_line1": "1 32174U 99025CTU 25348.89900938  .00000684  00000+0  31806-3 0  9998",
        "tle_line2": "2 32174  98.6008  50.9784 0150570 239.6650 118.9562 14.17923145641361"
      },
      "geometry": {
        "type": "Point",
        "coordinates": [
          45.78110374013596,
          45.184815764373084
        ]
      }
    },
    {
      "type": "Feature",
      "properties": {
        "norad_id": 32175,
        "name": "FENGYUN 1C DEB",
        "group": "fengyun-1c-debris",
        "lat": 10.63913635036639,
        "lon": 162.56003862279778,
        "alt_km": 994.671013905122,
        "timestamp": "2025-12-18T13:51:49.969628+00:00",
        "meta_object_name": "FENGYUN 1C DEB",
        "meta_object_id": "1999-025CTV",
        "meta_epoch": "2025-12-18T06:09:26.308800",
        "meta_mean_motion": 13.94848642,
        "meta_eccentricity": 0.01519453,
        "meta_inclination": 98.8229,
        "meta_ra_of_asc_node": 340.581,
        "meta_arg_of_pericenter": 308.0289,
        "meta_mean_anomaly": 50.7239,
        "meta_ephemeris_type": 0,
        "meta_classification_type": "U",
        "meta_norad_cat_id": 32175,
        "meta_element_set_no": 999,
        "meta_rev_at_epoch": 59917,
        "meta_bstar": 0.0025010704,
        "meta_mean_motion_dot": 3.654e-05,
        "meta_mean_motion_ddot": 0,
        "tle_line1": "1 32175U 99025CTV 25352.25655450  .00003654  00000+0  25011-2 0  9990",
        "tle_line2": "2 32175  98.8229 340.5810 0151945 308.0289  50.7239 13.94848642599170"
      },
      "geometry": {
        "type": "Point",
        "coordinates": [
          162.56003862279778,
          10.63913635036639
        ]
      }
    },
    {
      "type": "Feature",
      "properties": {
        "norad_id": 32177,
        "name": "FENGYUN 1C DEB",
        "group": "fengyun-1c-debris",
        "lat": 25.032540900127852,
        "lon": -173.36593419146328,
        "alt_km": 726.3242169103323,
        "timestamp": "2025-12-18T13:51:49.969639+00:00",
        "meta_object_name": "FENGYUN 1C DEB",
        "meta_object_id": "1999-025CTX",
        "meta_epoch": "2025-12-16T06:44:36.881088",
        "meta_mean_motion": 14.56264371,
        "meta_eccentricity": 0.00517454,
        "meta_inclination": 99.0442,
        "meta_ra_of_asc_node": 359.8799,
        "meta_arg_of_pericenter": 34.5509,
        "meta_mean_anomaly": 325.9031,
        "meta_ephemeris_type": 0,
        "meta_classification_type": "U",
        "meta_norad_cat_id": 32177,
        "meta_element_set_no": 999,
        "meta_rev_at_epoch": 71090,
        "meta_bstar": 0.00098402514,
        "meta_mean_motion_dot": 4.381e-05,
        "meta_mean_motion_ddot": 0,
        "tle_line1": "1 32177U 99025CTX 25350.28098242  .00004381  00000+0  98403-3 0  9997",
        "tle_line2": "2 32177  99.0442 359.8799 0051745  34.5509 325.9031 14.56264371710907"
      },
      "geometry": {
        "type": "Point",
        "coordinates": [
          -173.36593419146328,
          25.032540900127852
        ]
      }
    },
    {
      "type": "Feature",
      "properties": {
        "norad_id": 32178,
        "name": "FENGYUN 1C DEB",
        "group": "fengyun-1c-debris",
        "lat": 30.011151334591148,
        "lon": -11.037465074078114,
        "alt_km": 804.9249877501188,
        "timestamp": "2025-12-18T13:51:49.969649+00:00",
        "meta_object_name": "FENGYUN 1C DEB",
        "meta_object_id": "1999-025CTY",
        "meta_epoch": "2025-12-15T06:24:40.570272",
        "meta_mean_motion": 14.23003911,
        "meta_eccentricity": 0.00945392,
        "meta_inclination": 100.3042,
        "meta_ra_of_asc_node": 351.1263,
        "meta_arg_of_pericenter": 316.4626,
        "meta_mean_anomaly": 42.9112,
        "meta_ephemeris_type": 0,
        "meta_classification_type": "U",
        "meta_norad_cat_id": 32178,
        "meta_element_set_no": 999,
        "meta_rev_at_epoch": 64039,
        "meta_bstar": 0.00099014115,
        "meta_mean_motion_dot": 2.277e-05,
        "meta_mean_motion_ddot": 0,
        "tle_line1": "1 32178U 99025CTY 25349.26713623  .00002277  00000+0  99014-3 0  9992",
        "tle_line2": "2 32178 100.3042 351.1263 0094539 316.4626  42.9112 14.23003911640397"
      },
      "geometry": {
        "type": "Point",
        "coordinates": [
          -11.037465074078114,
          30.011151334591148
        ]
      }
    },
    {
      "type": "Feature",
      "properties": {
        "norad_id": 32179,
        "name": "FENGYUN 1C DEB",
        "group": "fengyun-1c-debris",
        "lat": -1.0461080301204924,
        "lon": 41.456140284384055,
        "alt_km": 989.3595409695208,
        "timestamp": "2025-12-18T13:51:49.969660+00:00",
        "meta_object_name": "FENGYUN 1C DEB",
        "meta_object_id": "1999-025CTZ",
        "meta_epoch": "2025-12-18T02:02:21.542784",
        "meta_mean_motion": 14.03684977,
        "meta_eccentricity": 0.01456543,
        "meta_inclination": 98.9087,
        "meta_ra_of_asc_node": 40.8092,
        "meta_arg_of_pericenter": 175.0671,
        "meta_mean_anomaly": 215.8267,
        "meta_ephemeris_type": 0,
        "meta_classification_type": "U",
        "meta_norad_cat_id": 32179,
        "meta_element_set_no": 999,
        "meta_rev_at_epoch": 65803,
        "meta_bstar": 0.0003411807,
        "meta_mean_motion_dot": 5.46e-06,
        "meta_mean_motion_ddot": 0,
        "tle_line1": "1 32179U 99025CTZ 25352.08497156  .00000546  00000+0  34118-3 0  9998",
        "tle_line2": "2 32179  98.9087  40.8092 0145654 175.0671 215.8267 14.03684977658032"
      },
      "geometry": {
        "type": "Point",
        "coordinates": [
          41.456140284384055,
          -1.0461080301204924
        ]
      }
    },
    {
      "type": "Feature",
      "properties": {
        "norad_id": 32180,
        "name": "FENGYUN 1C DEB",
        "group": "fengyun-1c-debris",
        "lat": -12.736505111686867,
        "lon": -149.3900692782822,
        "alt_km": 859.9486347366064,
        "timestamp": "2025-12-18T13:51:49.969670+00:00",
        "meta_object_name": "FENGYUN 1C DEB",
        "meta_object_id": "1999-025CUA",
        "meta_epoch": "2025-12-16T08:55:54.370848",
        "meta_mean_motion": 13.82328663,
        "meta_eccentricity": 0.01364724,
        "meta_inclination": 99.5855,
        "meta_ra_of_asc_node": 30.5564,
        "meta_arg_of_pericenter": 200.8926,
        "meta_mean_anomaly": 182.3424,
        "meta_ephemeris_type": 0,
        "meta_classification_type": "U",
        "meta_norad_cat_id": 32180,
        "meta_element_set_no": 999,
        "meta_rev_at_epoch": 94318,
        "meta_bstar": 0.00012246674,
        "meta_mean_motion_dot": 9.5e-07,
        "meta_mean_motion_ddot": 0,
        "tle_line1": "1 32180U 99025CUA 25350.37215707  .00000095  00000+0  12247-3 0  9998",
        "tle_line2": "2 32180  99.5855  30.5564 0136472 200.8926 182.3424 13.82328663943181"
      },
      "geometry": {
        "type": "Point",
        "coordinates": [
          -149.3900692782822,
          -12.736505111686867
        ]
      }
    },
    {
      "type": "Feature",
      "properties": {
        "norad_id": 32181,
        "name": "FENGYUN 1C DEB",
        "group": "fengyun-1c-debris",
        "lat": -47.2841150853571,
        "lon": -93.27447581285521,
        "alt_km": 761.6422058529542,
        "timestamp": "2025-12-18T13:51:49.969681+00:00",
        "meta_object_name": "FENGYUN 1C DEB",
        "meta_object_id": "1999-025CUB",
        "meta_epoch": "2025-12-16T13:18:01.157184",
        "meta_mean_motion": 14.56061675,
        "meta_eccentricity": 0.00736854,
        "meta_inclination": 99.4731,
        "meta_ra_of_asc_node": 94.8496,
        "meta_arg_of_pericenter": 74.133,
        "meta_mean_anomaly": 352.9041,
        "meta_ephemeris_type": 0,
        "meta_classification_type": "U",
        "meta_norad_cat_id": 32181,
        "meta_element_set_no": 999,
        "meta_rev_at_epoch": 96776,
        "meta_bstar": 0.000625983,
        "meta_mean_motion_dot": 2.801e-05,
        "meta_mean_motion_ddot": 0,
        "tle_line1": "1 32181U 99025CUB 25350.55418006  .00002801  00000+0  62598-3 0  9997",
        "tle_line2": "2 32181  99.4731  94.8496 0073685  74.1330 352.9041 14.56061675967767"
      },
      "geometry": {
        "type": "Point",
        "coordinates": [
          -93.27447581285521,
          -47.2841150853571
        ]
      }
    }
  ]
}